[{"OBJECT_NAME":"STARLINK-31015","OBJECT_ID":"2023-191P","EPOCH":"2026-03-09T19:19:49.812960","MEAN_MOTION":15.26752131,"ECCENTRICITY":7.72e-5,"INCLINATION":42.9962,"RA_OF_ASC_NODE":102.3866,"ARG_OF_PERICENTER":289.0171,"MEAN_ANOMALY":71.0596,"EPHEMERIS_TYPE":0,"CLASSIFICATION_TYPE":"U","NORAD_CAT_ID":58521,"ELEMENT_SET_NO":999,"REV_AT_EPOCH":12546,"BSTAR":0.00087806012,"MEAN_MOTION_DOT":0.00023376,"MEAN_MOTION_DDOT":0},{"OBJECT_NAME":"VSP RF B1","OBJECT_ID":"2024-043AR","EPOCH":"2026-03-09T22:40:29.479296","MEAN_MOTION":15.26694159,"ECCENTRICITY":0.00102608,"INCLINATION":97.5446,"RA_OF_ASC_NODE":204.7052,"ARG_OF_PERICENTER":220.7435,"MEAN_ANOMALY":139.3037,"EPHEMERIS_TYPE":0,"CLASSIFICATION_TYPE":"U","NORAD_CAT_ID":59137,"ELEMENT_SET_NO":999,"REV_AT_EPOCH":11187,"BSTAR":0.00024406819,"MEAN_MOTION_DOT":6.341e-5,"MEAN_MOTION_DDOT":0}]
